{
  "type": "FeatureCollection",
  "features": [
    {
      "type": "Feature",
      "properties": {
        "norad_id": 30405,
        "name": "FENGYUN 1C DEB",
        "group": "fengyun-1c-debris",
        "lat": -3.038486332805256,
        "lon": 74.80252854905706,
        "alt_km": 835.8080862832821,
        "timestamp": "2025-12-06T09:34:17.189974+00:00",
        "meta_object_name": "FENGYUN 1C DEB",
        "meta_object_id": "1999-025ADU",
        "meta_epoch": "2025-12-05T22:07:40.470816",
        "meta_mean_motion": 14.28822319,
        "meta_eccentricity": 0.00515834,
        "meta_inclination": 98.7949,
        "meta_ra_of_asc_node": 73.851,
        "meta_arg_of_pericenter": 173.1636,
        "meta_mean_anomaly": 252.7016,
        "meta_ephemeris_type": 0,
        "meta_classification_type": "U",
        "meta_norad_cat_id": 30405,
        "meta_element_set_no": 999,
        "meta_rev_at_epoch": 97298,
        "meta_bstar": 0.0030881774,
        "meta_mean_motion_dot": 7.86e-05,
        "meta_mean_motion_ddot": 0,
        "tle_line1": "1 30405U 99025ADU 25339.92199619  .00007860  00000+0  30882-2 0  9998",
        "tle_line2": "2 30405  98.7949  73.8510 0051583 173.1636 252.7016 14.28822319972981"
      },
      "geometry": {
        "type": "Point",
        "coordinates": [
          74.80252854905706,
          -3.038486332805256
        ]
      }
    },
    {
      "type": "Feature",
      "properties": {
        "norad_id": 30406,
        "name": "FENGYUN 1C DEB",
        "group": "fengyun-1c-debris",
        "lat": 67.31522569809509,
        "lon": 73.09328012211164,
        "alt_km": 1043.7716087834842,
        "timestamp": "2025-12-06T09:34:17.189984+00:00",
        "meta_object_name": "FENGYUN 1C DEB",
        "meta_object_id": "1999-025ADV",
        "meta_epoch": "2025-12-05T22:31:04.202112",
        "meta_mean_motion": 13.59170429,
        "meta_eccentricity": 0.02829929,
        "meta_inclination": 98.6203,
        "meta_ra_of_asc_node": 231.4094,
        "meta_arg_of_pericenter": 17.423,
        "meta_mean_anomaly": 358.0045,
        "meta_ephemeris_type": 0,
        "meta_classification_type": "U",
        "meta_norad_cat_id": 30406,
        "meta_element_set_no": 999,
        "meta_rev_at_epoch": 93074,
        "meta_bstar": 0.003642334,
        "meta_mean_motion_dot": 3.452e-05,
        "meta_mean_motion_ddot": 0,
        "tle_line1": "1 30406U 99025ADV 25339.93824308  .00003452  00000+0  36423-2 0  9990",
        "tle_line2": "2 30406  98.6203 231.4094 0282992  17.4230 358.0045 13.59170429930744"
      },
      "geometry": {
        "type": "Point",
        "coordinates": [
          73.09328012211164,
          67.31522569809509
        ]
      }
    },
    {
      "type": "Feature",
      "properties": {
        "norad_id": 30409,
        "name": "FENGYUN 1C DEB",
        "group": "fengyun-1c-debris",
        "lat": -81.08453423314214,
        "lon": 40.04349942276395,
        "alt_km": 929.6278367799632,
        "timestamp": "2025-12-06T09:34:17.189994+00:00",
        "meta_object_name": "FENGYUN 1C DEB",
        "meta_object_id": "1999-025ADY",
        "meta_epoch": "2025-12-05T22:17:37.781664",
        "meta_mean_motion": 14.03698532,
        "meta_eccentricity": 0.01682506,
        "meta_inclination": 98.4724,
        "meta_ra_of_asc_node": 327.7729,
        "meta_arg_of_pericenter": 24.7587,
        "meta_mean_anomaly": 36.5994,
        "meta_ephemeris_type": 0,
        "meta_classification_type": "U",
        "meta_norad_cat_id": 30409,
        "meta_element_set_no": 999,
        "meta_rev_at_epoch": 96334,
        "meta_bstar": 0.0013746152,
        "meta_mean_motion_dot": 2.411e-05,
        "meta_mean_motion_ddot": 0,
        "tle_line1": "1 30409U 99025ADY 25339.92890951  .00002411  00000+0  13746-2 0  9996",
        "tle_line2": "2 30409  98.4724 327.7729 0168250  24.7587  36.5994 14.03698532963346"
      },
      "geometry": {
        "type": "Point",
        "coordinates": [
          40.04349942276395,
          -81.08453423314214
        ]
      }
    },
    {
      "type": "Feature",
      "properties": {
        "norad_id": 30411,
        "name": "FENGYUN 1C DEB",
        "group": "fengyun-1c-debris",
        "lat": 49.10206646578714,
        "lon": -118.71526216076178,
        "alt_km": 838.9698605155727,
        "timestamp": "2025-12-06T09:34:17.190003+00:00",
        "meta_object_name": "FENGYUN 1C DEB",
        "meta_object_id": "1999-025AEA",
        "meta_epoch": "2025-12-05T16:16:28.075872",
        "meta_mean_motion": 14.07591644,
        "meta_eccentricity": 0.0122005,
        "meta_inclination": 98.5818,
        "meta_ra_of_asc_node": 250.64,
        "meta_arg_of_pericenter": 126.795,
        "meta_mean_anomaly": 234.4489,
        "meta_ephemeris_type": 0,
        "meta_classification_type": "U",
        "meta_norad_cat_id": 30411,
        "meta_element_set_no": 999,
        "meta_rev_at_epoch": 95884,
        "meta_bstar": 0.0028945359,
        "meta_mean_motion_dot": 5.191e-05,
        "meta_mean_motion_ddot": 0,
        "tle_line1": "1 30411U 99025AEA 25339.67810273  .00005191  00000+0  28945-2 0  9995",
        "tle_line2": "2 30411  98.5818 250.6400 0122005 126.7950 234.4489 14.07591644958846"
      },
      "geometry": {
        "type": "Point",
        "coordinates": [
          -118.71526216076178,
          49.10206646578714
        ]
      }
    },
    {
      "type": "Feature",
      "properties": {
        "norad_id": 30413,
        "name": "FENGYUN 1C DEB",
        "group": "fengyun-1c-debris",
        "lat": -53.907947465408284,
        "lon": 13.780507353350952,
        "alt_km": 757.4773081901376,
        "timestamp": "2025-12-06T09:34:17.190014+00:00",
        "meta_object_name": "FENGYUN 1C DEB",
        "meta_object_id": "1999-025AEC",
        "meta_epoch": "2025-12-05T14:17:22.416576",
        "meta_mean_motion": 14.32411382,
        "meta_eccentricity": 0.00460926,
        "meta_inclination": 102.062,
        "meta_ra_of_asc_node": 209.7234,
        "meta_arg_of_pericenter": 235.6899,
        "meta_mean_anomaly": 179.0657,
        "meta_ephemeris_type": 0,
        "meta_classification_type": "U",
        "meta_norad_cat_id": 30413,
        "meta_element_set_no": 999,
        "meta_rev_at_epoch": 97037,
        "meta_bstar": 0.004144905,
        "meta_mean_motion_dot": 0.00011295,
        "meta_mean_motion_ddot": 0,
        "tle_line1": "1 30413U 99025AEC 25339.59539834  .00011295  00000+0  41449-2 0  9995",
        "tle_line2": "2 30413 102.0620 209.7234 0046092 235.6899 179.0657 14.32411382970374"
      },
      "geometry": {
        "type": "Point",
        "coordinates": [
          13.780507353350952,
          -53.907947465408284
        ]
      }
    },
    {
      "type": "Feature",
      "properties": {
        "norad_id": 30414,
        "name": "FENGYUN 1C DEB",
        "group": "fengyun-1c-debris",
        "lat": -68.4888697370305,
        "lon": 161.27075334924535,
        "alt_km": 780.0106106755575,
        "timestamp": "2025-12-06T09:34:17.190024+00:00",
        "meta_object_name": "FENGYUN 1C DEB",
        "meta_object_id": "1999-025AED",
        "meta_epoch": "2025-12-05T22:10:44.076864",
        "meta_mean_motion": 14.33999151,
        "meta_eccentricity": 0.00587482,
        "meta_inclination": 99.0803,
        "meta_ra_of_asc_node": 136.8338,
        "meta_arg_of_pericenter": 208.2864,
        "meta_mean_anomaly": 151.5125,
        "meta_ephemeris_type": 0,
        "meta_classification_type": "U",
        "meta_norad_cat_id": 30414,
        "meta_element_set_no": 999,
        "meta_rev_at_epoch": 96989,
        "meta_bstar": 0.0041950326,
        "meta_mean_motion_dot": 0.00011912,
        "meta_mean_motion_ddot": 0,
        "tle_line1": "1 30414U 99025AED 25339.92412126  .00011912  00000+0  41950-2 0  9990",
        "tle_line2": "2 30414  99.0803 136.8338 0058748 208.2864 151.5125 14.33999151969893"
      },
      "geometry": {
        "type": "Point",
        "coordinates": [
          161.27075334924535,
          -68.4888697370305
        ]
      }
    },
    {
      "type": "Feature",
      "properties": {
        "norad_id": 30415,
        "name": "FENGYUN 1C DEB",
        "group": "fengyun-1c-debris",
        "lat": 58.299647087902876,
        "lon": 24.654668895514853,
        "alt_km": 1117.6027161913935,
        "timestamp": "2025-12-06T09:34:17.190044+00:00",
        "meta_object_name": "FENGYUN 1C DEB",
        "meta_object_id": "1999-025AEE",
        "meta_epoch": "2025-12-03T02:29:12.911424",
        "meta_mean_motion": 13.68896976,
        "meta_eccentricity": 0.02374476,
        "meta_inclination": 99.646,
        "meta_ra_of_asc_node": 37.34,
        "meta_arg_of_pericenter": 294.0738,
        "meta_mean_anomaly": 93.2871,
        "meta_ephemeris_type": 0,
        "meta_classification_type": "U",
        "meta_norad_cat_id": 30415,
        "meta_element_set_no": 999,
        "meta_rev_at_epoch": 93746,
        "meta_bstar": 0.0014054844,
        "meta_mean_motion_dot": 1.429e-05,
        "meta_mean_motion_ddot": 0,
        "tle_line1": "1 30415U 99025AEE 25337.10362166  .00001429  00000+0  14055-2 0  9995",
        "tle_line2": "2 30415  99.6460  37.3400 0237447 294.0738  93.2871 13.68896976937468"
      },
      "geometry": {
        "type": "Point",
        "coordinates": [
          24.654668895514853,
          58.299647087902876
        ]
      }
    }
  ]
}